#cP2010  5  5  0  0  0.00000000      96 ORBIT IGS05 HLM  IGS
## 1582 259200.00000000   900.00000000 55321 0.0000000000000
+   31   G01G02G03G04G05G06G07G08G09G10G11G12G13G14G15G16G17
+        G18G19G20G21G22G23G24G26G27G28G29G30G31G32  0  0  0
+          0  0  0  0  0  0  0  0  0  0  0  0  0  0  0  0  0
+          0  0  0  0  0  0  0  0  0  0  0  0  0  0  0  0  0
+          0  0  0  0  0  0  0  0  0  0  0  0  0  0  0  0  0
++         4  2  2  2  2  2  2  3  3  2  2  2  2  3  2  2  2
++         2  2  2  2  2  2  2  2  2  2  2  2  2  2  0  0  0
++         0  0  0  0  0  0  0  0  0  0  0  0  0  0  0  0  0
++         0  0  0  0  0  0  0  0  0  0  0  0  0  0  0  0  0
++         0  0  0  0  0  0  0  0  0  0  0  0  0  0  0  0  0
%c G  cc GPS ccc cccc cccc cccc cccc ccccc ccccc ccccc ccccc
%c cc cc ccc ccc cccc cccc cccc cccc ccccc ccccc ccccc ccccc
%f  1.2500000  1.025000000  0.00000000000  0.000000000000000
%f  0.0000000  0.000000000  0.00000000000  0.000000000000000
%i    0    0    0    0      0      0      0      0         0
%i    0    0    0    0      0      0      0      0         0
/* FINAL ORBIT COMBINATION FROM WEIGHTED AVERAGE OF:        
/* cod emr esa gfz grg jpl mit ngs sio                      
/* REFERENCED TO IGS TIME (IGST) AND TO WEIGHTED MEAN POLE: 
/* PCV:IGS05_1581 OL/AL:FES2004  NONE     Y  ORB:CMB CLK:CMB
*  2010  5  5 19 30  0.00000000
PG01  10931.044495 -23803.915325   3860.401700 999999.999999
PG02  12894.959433  22340.220307   7231.539271    252.939511  6  6  7 134       
PG03 -10401.649890 -13202.152646 -20981.730523    551.050793  5  7  5 125       
PG04   -640.930082  19304.513910  17905.000618     75.374084  5  4  7 125       
PG05   4697.873482  20730.252252 -15892.007593     -2.416351  5  7  6 125       
PG06  -5281.091076 -14845.859122 -21203.952037    648.259584  5  7  5 109       
PG07 -16396.526458   2695.977570 -20769.706480     -0.187199  6  7  7 135       
PG08  -7667.847372  13272.199336 -21621.375931      5.239292 10  7  9 141       
PG09  20438.209455  15119.048326   7230.767907      4.784408  8  8  8 174       
PG10  -2545.487262  24803.876985  -8806.745471    -41.900776  7  7  9 111       
PG11 -23748.570915  -8219.851081   8863.559674    -60.722868  6  7  7 133       
PG12  14489.158778   4064.824916  21933.193685   -118.753146  5  4  6 121       
PG13 -26072.564939   4673.708696  -2250.559300    304.740431  4  6  6 117       
PG14  13458.017828 -14075.889948  18136.906684     42.125919  7  5  4  98       
PG15  18759.574480   8321.815284 -16911.719187   -277.311867  5  8  4 118       
PG16    461.065643 -23723.522739 -11601.540602    -68.493497  7 10  7 110       
PG17 -13991.601223  14596.540605  17214.076043    148.873231  5  6  4 105       
PG18  16607.657895 -14382.471492 -14387.623037     66.340559  4  6  6  90       
PG19 -19378.653347  -9067.455971 -15897.214833    -32.835904  4  9  4 144       
PG20 -15946.311165   -831.769640  21081.308096     56.611675  7  5  3  78       
PG21  14599.494416  -6703.317451 -20886.244323    -58.118219  6  7  3 136       
PG22  12135.663998 -23141.693869  -4320.555151    172.786104  7  7  4  94       
PG23 -25797.296405   -113.809998   6951.580321    371.901569  4  5  4 137       
PG24   8525.813711 -13629.900446 -21106.060043    284.809111  5  4  5 125       
PG26  25659.415385   2000.877043  -7918.636868    -47.987815  3  6  6 123       
PG27  20703.923774  16013.876577   5629.328174    149.277715  6  6  7  88       
PG28 -13027.914550  21972.476497  -6221.624282    -16.928570  6  9  6 110       
PG29  26042.909852  -4969.234318  -1099.323077    117.744661  4  6  5 116       
PG30  16327.517667  -8692.528684  18649.026337    239.941208  6  6  5 122       
PG31  -1936.048306 -20148.413505  17310.307542    -38.279226  6  9  6 134       
PG32 -11570.148279 -11139.123160  21545.386036     36.058464  7  4  3 122       
*  2010  5  5 19 45  0.00000000
PG01  10990.062989 -23142.252183   6646.456594 999999.999999
PG02  12041.088230  21816.453462   9791.165588    252.942739  7  6  7 127       
PG03  -8193.381466 -14031.573812 -21394.028118    551.054711  5  7  5 120       
PG04  -2244.693529  17821.667443  19280.922979     75.381519  6  4  7 118       
PG05   4014.144673  22298.893802 -13810.042347     -2.416874  5  7  6 126       
PG06  -2897.484264 -15505.817977 -21178.706763    648.250045  5  8  5 110       
PG07 -17898.413379    946.722889 -19667.403463     -0.187328  5  7  7 136       
PG08  -9268.908372  11353.599955 -22127.763626      5.239709  9  7  8 135       
PG09  20808.610529  15777.169575   4442.645117      4.785338  8  9  8 174       
PG10  -3078.999844  25512.495096  -6120.926954    -41.901464  7  7  9 105       
PG11 -24276.223511  -9057.607584   6369.536057    -60.725171  7  7  7 127       
PG12  13730.398512   6438.187584  21866.131856   -118.749281  6  4  6 128       
PG13 -26171.545209   4525.917658    664.518902    304.739842  3  5  6 121       
PG14  15394.657177 -14301.120698  16303.606243     42.130118  6  4  4  93       
PG15  16825.346631   8951.412235 -18534.899595   -277.307023  5  8  4 120       
PG16   1050.497434 -24784.989810  -9052.055129    -68.496797  7 10  7 112       
PG17 -15842.206816  14788.750715  15312.498833    148.875613  4  6  4 109       
PG18  16266.772285 -12576.432522 -16337.865081     66.343029  4  7  5  85       
PG19 -17503.225152  -9495.886336 -17688.904636    -32.838266  4  9  3 146       
PG20 -15320.076288  -3214.478414  21318.847469     56.611347  7  6  3 103       
PG21  16184.153085  -4867.985816 -20284.317708    -58.120664  5  7  3 147       
PG22  12226.597250 -22401.167543  -7028.364324    172.784964  7  7  4  91       
PG23 -24919.373696   -505.947672   9591.405909    371.900198  5  5  4 145       
PG24  10122.447361 -11765.441384 -21495.222294    284.810795  4  4  6 123       
PG26  24716.540933   2267.681848 -10550.551357    -47.992247  3  7  6 119       
PG27  20864.377876  16426.752498   2799.973319    149.280363  6  6  7 102       
PG28 -12953.077440  21012.569638  -8930.996903    -16.927872  6  8  5 102       
PG29  26065.753379  -4708.526134   1757.282284    117.747238  4  6  5 113       
PG30  15872.350287  -6450.089171  19890.180886    239.943068  6  5  5 118       
PG31   -463.814689 -18731.118905  18961.056625    -38.277400  6  8  5 136       
PG32 -10641.344825 -13294.430716  20806.393416     36.050602  7  3  3 128       
*  2010  5  5 20  0  0.00000000
PG01  11011.547841 -22182.446838   9316.905904 999999.999999
PG02  10958.013925  21146.796383  12186.246697    252.945815  7  6  7 133       
PG03  -6000.614552 -14976.981418 -21450.550005    551.060074  5  7  6 115       
PG04  -4014.499080  16322.827864  20317.153263     75.389271  5  4  7 118       
PG05   3470.791991  23658.764552 -11489.721470     -2.417620  5  7  7 115       
PG06   -569.192290 -16270.387233 -20782.712318    648.240125  5  8  5 112       
PG07 -19388.454451   -618.047276 -18228.535050     -0.187357  5  6  8 137       
PG08 -10997.348215   9506.637196 -22252.617141      5.240145  9  7  8 143       
PG09  20977.652404  16193.661994   1577.383778      4.788133  8  9  7 169       
PG10  -3496.713308  25946.545162  -3328.059657    -41.901419  7  7  9  95       
PG11 -24594.591354  -9724.795031   3767.350507    -60.727224  7  6  6 133       
PG12  13108.001809   8819.740746  21424.940542   -118.745334  6  5  6 130       
PG13 -25956.287815   4312.042477   3568.154241    304.739539  3  5  6 116       
PG14  17100.066983 -14581.822416  14190.865553     42.134020  6  3  3  86       
PG15  14766.862721   9728.135749 -19840.016658   -277.302265  6  9  4 119       
PG16   1503.551497 -25587.053564  -6344.061867    -68.500241  8 10  7 107       
PG17 -17459.604350  15017.005408  13146.695103    148.877930  4  6  4 119       
PG18  15957.349047 -10557.620364 -17997.300045     66.345214  4  7  5  63       
PG19 -15469.304056 -10059.859263 -19178.743424    -32.840508  4  8  3 137       
PG20 -14807.814293  -5629.766046  21184.912083     56.610749  7  7  4  98       
PG21  17786.345571  -3177.619090 -19327.055291    -58.123155  5  7  3 145       
PG22  12273.331629 -21376.125609  -9613.965795    172.783659  7  6  4 103       
PG23 -23786.059592  -1023.861946  12068.830838    371.898890  5  5  4 143       
PG24  11828.174211  -9964.880833 -21512.546317    284.813670  4  5  6 125       
PG26  23515.665493   2647.833009 -13009.037088    -47.996443  3  7  6 117       
PG27  20800.933918  16625.280387    -76.746799    149.283847  6  6  6 108       
PG28 -12848.418534  19756.249611 -11481.130569    -16.926785  5  7  5 102       
PG29  25790.193120  -4370.186146   4583.603175    117.749546  3  5  5 107       
PG30  15506.333326  -4066.364221  20776.905694    239.945221  6  5  5 106       
PG31   1202.775526 -17281.469142  20289.067142    -38.275358  7  8  5 131       
PG32  -9861.502137 -15398.424053  19722.223961     36.042755  7  4  3 125       
EOF
